FLOCK 2P-4              
1 41611U 16040N   17210.88560622  .00001422  00000-0  64673-4 0  9991
2 41611  97.4588 273.3899 0009643 297.7451  62.2807 15.22350202 61165
FLOCK 2P-10             
1 41612U 16040P   17210.73230739  .00001707  00000-0  76977-4 0  9995
2 41612  97.4589 273.3124 0009371 298.5503  61.4790 15.22368140 61143
FLOCK 2P-8              
1 41613U 16040Q   17210.94590533  .00001827  00000-0  82152-4 0  9995
2 41613  97.4585 273.4672 0009471 296.6698  63.3568 15.22369659 61177
FLOCK 2P-12             
1 41614U 16040R   17210.71021718  .00000754  00000-0  35731-4 0  9994
2 41614  97.4600 273.3737 0009203 297.9902  62.0402 15.22337406 61147
FLOCK 2P-7              
1 41615U 16040S   17210.94042086  .00001609  00000-0  72724-4 0  9994
2 41615  97.4586 273.4606 0009434 298.3719  61.6565 15.22366256 61177
FLOCK 2P-5              
1 41616U 16040T   17210.72125812  .00001415  00000-0  64341-4 0  9991
2 41616  97.4599 273.3584 0009203 297.1959  62.8339 15.22367053 61126
FLOCK 2P-1              
1 41617U 16040U   17210.84130088  .00001239  00000-0  56744-4 0  9998
2 41617  97.4601 273.5045 0009071 298.0694  61.9624 15.22357256 61169
FLOCK 2P-3              
1 41618U 16040V   17210.73776719  .00001959  00000-0  87940-4 0  9995
2 41618  97.4594 273.3307 0009049 298.1378  61.8943 15.22353343 61149
BEESAT-4                
1 41619U 16040W   17210.69584430  .00000982  00000-0  47568-4 0  9995
2 41619  97.4594 272.6691 0010380 281.0856  78.9212 15.20871483 49052
3CAT-2                  
1 41732U 16051B   17210.82761248  .00000931  00000-0  40111-4 0  9993
2 41732  97.3745 127.1820 0015347 118.9701 277.1224 15.24978719 53031
FLOCK 2E'-13            
1 41761U 98067KH  17210.52885989  .00006265  00000-0  77988-4 0  9996
2 41761  51.6372 177.3775 0007383  60.2318 299.9410 15.61405466 49525
FLOCK 2E'-14            
1 41762U 98067KJ  17210.25330439  .00006725  00000-0  82645-4 0  9999
2 41762  51.6383 178.5648 0007322  59.3909 300.7806 15.61601175 49488
FLOCK 2E'-16            
1 41763U 98067KK  17210.53183500  .00006999  00000-0  84169-4 0  9992
2 41763  51.6385 176.6711 0006622  68.8825 291.2877 15.62100420 49496
FLOCK 2E'-15            
1 41764U 98067KL  17210.28669092  .00006410  00000-0  79974-4 0  9996
2 41764  51.6382 178.7826 0006874  65.4294 294.7415 15.61299593 49446
FLOCK 2E'-18            
1 41769U 98067KM  17210.52714708  .00006027  00000-0  75425-4 0  9994
2 41769  51.6383 177.3820 0005871  85.3896 274.7768 15.61351552 49483
FLOCK 2E'-17            
1 41776U 98067KN  17210.38997757  .00006180  00000-0  76968-4 0  9996
2 41776  51.6391 177.9873 0006246  85.9826 274.1882 15.61424017 49455
FLOCK 2E'-19            
1 41777U 98067KP  17210.37218602  .00010395  00000-0  11264-3 0  9991
2 41777  51.6367 174.8199 0005259  85.5747 274.5849 15.64185050 49458
FLOCK 2E'-20            
1 41782U 98067KQ  17210.90322980  .00009168  00000-0  10330-3 0  9990
2 41782  51.6381 173.1470 0005356  81.2947 278.8654 15.63352679 49393
CANX-7                  
1 41788U 16059F   17210.76131718  .00007452  00000-0  13909-2 0  9996
2 41788  98.1795 272.2644 0033215  41.5298 318.8395 14.64894090 44829
ALSAT 1N                
1 41789U 16059G   17210.72789192  .00000084  00000-0  25132-4 0  9995
2 41789  98.1647 272.2379 0028995  24.0937 336.1606 14.64060460 44831
RAVAN                   
1 41849U 16067B   17210.73506106  .00000090  00000-0  13099-4 0  9990
2 41849  97.9474 289.5095 0009177 151.4350 208.7376 14.97050642 38876
CELTEE 1                
1 41850U 16067C   17210.78669929 -.00000094  00000-0 -29102-5 0  9999
2 41850  97.9476 289.4392 0009550 148.0573 212.1228 14.96580634 38876
OPTICUBE 04             
1 41851U 16067D   17210.79428188 -.00000439  00000-0 -33295-4 0  9991
2 41851  97.9471 289.4290 0009462 150.1724 210.0037 14.96505004 38876
AEROCUBE 8D             
1 41852U 16067E   17210.78332048  .00000144  00000-0  18103-4 0  9992
2 41852  97.9485 289.3205 0010451 149.4787 210.7044 14.96226820 38867
AEROCUBE 8C             
1 41853U 16067F   17210.78970096 -.00000184  00000-0 -10892-4 0  9997
2 41853  97.9483 289.3106 0010714 151.2596 208.9217 14.96189435 38868
PROMETHEUS 2-1          
1 41854U 16067G   17210.80529819 -.00000037  00000-0  21313-5 0  9991
2 41854  97.9482 289.2947 0011096 152.5088 207.6721 14.96151290 38868
PROMETHEUS 2-3          
1 41855U 16067H   17210.80692162  .00000021  00000-0  73042-5 0  9992
2 41855  97.9483 289.2957 0011288 152.9381 207.2430 14.96142949 38868
LEMUR-2-XIAOQING        
1 41871U 16062C   17210.34121965  .00001509  00000-0  78430-4 0  9999
2 41871  51.6510 246.7341 0005169  19.9843  74.9238 15.22490549 37366
LEMUR-2-SOKOLSKY        
1 41872U 16062D   17210.72247954  .00001958  00000-0  97565-4 0  9997
2 41872  51.6415 244.7066 0004848  46.4906  53.9206 15.22486785 37416
LEMUR-2-ANUBHAVTHAKUR   
1 41873U 16062E   17210.54422846  .00000949  00000-0  55923-4 0  9994
2 41873  51.6446 246.5045 0007189  42.8702  75.8284 15.21627302 37367
LEMUR-2-WINGO           
1 41874U 16062F   17210.61782502 -.00000097  00000-0  10157-4 0  9996
2 41874  51.6397 245.6273 0006509  14.9599  61.4652 15.22190988 37394
STARS-C                 
1 41895U 98067KR  17210.48739009  .00018354  00000-0  20005-3 0  9999
2 41895  51.6370 180.1052 0005246 100.1830 259.9756 15.63444252 34600
TANCREDO-1              
1 41931U 98067KT  17210.12718184  .00051418  00000-0  39461-3 0  9996
2 41931  51.6344 176.9079 0007313  69.4548 290.7234 15.71514894 30186
ITF-2                   
1 41932U 98067KU  17210.88007071  .00009383  00000-0  11914-3 0  9993
2 41932  51.6397 180.5076 0006390  68.4011 291.7662 15.60174266 30203
WASEDA-SAT3             
1 41933U 98067KV  17210.90374537  .00011153  00000-0  13676-3 0  9996
2 41933  51.6379 179.8965 0006336  70.7767 289.3911 15.60868021 30216
AOBA-VELOX 3            
1 41935U 98067KX  17210.41232200  .00011080  00000-0  13740-3 0  9995
2 41935  51.6393 182.6282 0005835  69.9928 290.1693 15.60582880 30235
TUPOD                   
1 41936U 98067KY  17210.30278998  .00115293  00000-0  58710-3 0  9995
2 41936  51.6299 172.0315 0006481  74.8842 285.2877 15.80539540 29749
OSNSAT                  
1 41939U 98067KZ  17210.48102052  .00022986  00000-0  22772-3 0  9999
2 41939  51.6364 178.5548 0007409  69.8233 290.3559 15.65691161 29557
FLOCK 3P-8              
1 41951U 17008D   17210.89181242  .00002532  00000-0  11186-3 0  9994
2 41951  97.4922 272.0822 0009685  51.9117 308.2991 15.22621631 25031
FLOCK 3P-51             
1 41952U 17008E   17210.92917121  .00000713  00000-0  33640-4 0  9991
2 41952  97.4932 272.1984 0009944  67.3610 292.8677 15.22697584 25040
FLOCK 3P-37             
1 41953U 17008F   17210.89579373  .00001802  00000-0  79408-4 0  9993
2 41953  97.4931 272.2361 0009288  71.7898 288.4349 15.23096743 25046
INS-1B                  
1 41954U 17008G   17210.94462723  .00000999  00000-0  47030-4 0  9992
2 41954  97.4904 271.9671 0010871  49.6826 310.5358 15.21836763 24972
FLOCK 3P-19             
1 41955U 17008H   17210.90669633  .00002578  00000-0  11396-3 0  9998
2 41955  97.4918 272.0539 0010535  51.2686 308.9491 15.22579892 24958
FLOCK 3P-24             
1 41956U 17008J   17210.90516858  .00002504  00000-0  11064-3 0  9990
2 41956  97.4917 272.0561 0010363  49.0003 311.2127 15.22622223 25030
FLOCK 3P-18             
1 41957U 17008K   17210.90672928  .00001852  00000-0  82623-4 0  9997
2 41957  97.4922 272.0573 0010383  49.5409 310.6731 15.22624469 24876
FLOCK 3P-22             
1 41958U 17008L   17210.90983938  .00002448  00000-0  10851-3 0  9999
2 41958  97.4919 272.0538 0010330  50.2553 309.9592 15.22532098 24866
FLOCK 3P-21             
1 41959U 17008M   17210.89947681  .00002425  00000-0  10735-3 0  9999
2 41959  97.4924 272.0757 0010165  52.4696 307.7462 15.22594483 24873
FLOCK 3P-28             
1 41960U 17008N   17210.89762152  .00002376  00000-0  10520-3 0  9996
2 41960  97.4922 272.0750 0009974  51.1350 309.0775 15.22606908 24952
FLOCK 3P-26             
1 41961U 17008P   17210.90593393  .00002548  00000-0  11277-3 0  9999
2 41961  97.4921 272.0624 0010156  50.3847 309.8285 15.22556564 24875
FLOCK 3P-17             
1 41962U 17008Q   17210.88768571  .00001488  00000-0  66943-4 0  9992
2 41962  97.4926 272.0873 0010000  52.5555 307.6590 15.22649726 24828
FLOCK 3P-27             
1 41963U 17008R   17210.91213460  .00002572  00000-0  11405-3 0  9996
2 41963  97.4922 272.0566 0010286  50.5165 309.6979 15.22481634 24875
FLOCK 3P-25             
1 41964U 17008S   17210.90168706  .00002475  00000-0  10951-3 0  9995
2 41964  97.4920 272.0659 0009934  51.4830 308.7296 15.22591781 24859
FLOCK 3P-4              
1 41965U 17008T   17210.89576703  .00002449  00000-0  10828-3 0  9998
2 41965  97.4923 272.0792 0009910  52.4413 307.7722 15.22623716 24951
FLOCK 3P-2              
1 41966U 17008U   17210.89600036  .00002472  00000-0  10934-3 0  9990
2 41966  97.4924 272.0821 0009722  51.0234 309.1867 15.22608997 24874
FLOCK 3P-1              
1 41967U 17008V   17210.90365786  .00001713  00000-0  77099-4 0  9996
2 41967  97.4931 272.0742 0009806  51.3394 308.8718 15.22428116 24872
FLOCK 3P-3              
1 41968U 17008W   17210.83251315  .00002509  00000-0  11093-3 0  9996
2 41968  97.4922 272.0097 0009831  51.3887 308.8228 15.22602616 24944
FLOCK 3P-6              
1 41969U 17008X   17210.89446873  .00002485  00000-0  10983-3 0  9998
2 41969  97.4925 272.0847 0009619  51.2164 308.9930 15.22626066 24869
FLOCK 3P-7              
1 41970U 17008Y   17210.87858755  .00001720  00000-0  76765-4 0  9996
2 41970  97.4929 272.1064 0009802  53.5600 306.6538 15.22722098 24873
FLOCK 3P-5              
1 41971U 17008Z   17210.88951813  .00001935  00000-0  86214-4 0  9995
2 41971  97.4927 272.0950 0009708  53.2112 307.0014 15.22615227 24807
